0 FENGYUN 1C DEB
1 30005U 99025ME  13282.52985544  .00000610  00000-0  73442-3 0  9351
2 30005 099.2524 125.5895 0367424 099.9041 264.3767 13.44816591330591
0 FENGYUN 1C DEB
1 30005U 99025ME  13285.80337455  .00000640  00000-0  76881-3 0  9372
2 30005 099.2517 128.6115 0367506 091.7258 272.5997 13.44820797331032
0 FENGYUN 1C DEB
1 30005U 99025ME  13287.51452089  .00000674  00000-0  80685-3 0  9388
2 30005 099.2512 130.1912 0367556 087.4470 276.8677 13.44823534331262
0 FENGYUN 1C DEB
1 30005U 99025ME  13289.52324655  .00000684  00000-0  81787-3 0  9394
2 30005 099.2510 132.0456 0367594 082.4237 281.8484 13.44828043331534
0 FENGYUN 1C DEB
1 30005U 99025ME  13291.53195975  .00000727  00000-0  86761-3 0  9406
2 30005 099.2509 133.9000 0367621 077.4032 286.7946 13.44830883331807
0 FENGYUN 1C DEB
1 30005U 99025ME  13292.79669915  .00000803  00000-0  95385-3 0  9413
2 30005 099.2508 135.0675 0367657 074.2424 289.8931 13.44832875331975
0 FENGYUN 1C DEB
1 30005U 99025ME  13294.50781066  .00000782  00000-0  92999-3 0  9421
2 30005 099.2507 136.6469 0367679 069.9680 294.0639 13.44836296332202
0 FENGYUN 1C DEB
1 30005U 99025ME  13295.54935231  .00000872  00000-0  10316-2 0  9434
2 30005 099.2507 137.6084 0367724 067.3633 296.5954 13.44837968332346
